[{"OBJECT_NAME":"HAWK-8C","OBJECT_ID":"2024-066H","EPOCH":"2026-03-09T11:22:19.381152","MEAN_MOTION":14.98770227,"ECCENTRICITY":0.00039352,"INCLINATION":45.6068,"RA_OF_ASC_NODE":72.8656,"ARG_OF_PERICENTER":260.2975,"MEAN_ANOMALY":99.7462,"EPHEMERIS_TYPE":0,"CLASSIFICATION_TYPE":"U","NORAD_CAT_ID":59449,"ELEMENT_SET_NO":999,"REV_AT_EPOCH":10486,"BSTAR":0.00021518384,"MEAN_MOTION_DOT":2.4e-5,"MEAN_MOTION_DDOT":0},{"OBJECT_NAME":"STARLINK-34039","OBJECT_ID":"2025-098W","EPOCH":"2026-03-09T21:56:25.128672","MEAN_MOTION":14.98332542,"ECCENTRICITY":0.00023739,"INCLINATION":70.0002,"RA_OF_ASC_NODE":273.9873,"ARG_OF_PERICENTER":268.0885,"MEAN_ANOMALY":92.0002,"EPHEMERIS_TYPE":0,"CLASSIFICATION_TYPE":"U","NORAD_CAT_ID":63946,"ELEMENT_SET_NO":999,"REV_AT_EPOCH":4658,"BSTAR":0.0001503088,"MEAN_MOTION_DOT":1.701e-5,"MEAN_MOTION_DDOT":0}]
